{"type": "FeatureCollection", "features": [ {"type": "Feature", "properties": {"norad_id": 57654, "name": "GAOFEN-12 04", "group": "resource", "lat": -54.81796162915826, "lon": -97.52442475837385, "alt_km": 638.1088113089036, "timestamp": "2025-12-01T03:58:49.208995+00:00", "meta": {"OBJECT_NAME": "GAOFEN-12 04", "OBJECT_ID": "2023-123A", "EPOCH": "2025-11-30T21:44:21.296256", "MEAN_MOTION": 14.79641517, "ECCENTRICITY": 0.0001479, "INCLINATION": 97.911, "RA_OF_ASC_NODE": 250.8435, "ARG_OF_PERICENTER": 71.5692, "MEAN_ANOMALY": 288.5681, "EPHEMERIS_TYPE": 0, "CLASSIFICATION_TYPE": "U", "NORAD_CAT_ID": 57654, "ELEMENT_SET_NO": 999, "REV_AT_EPOCH": 12330, "BSTAR": 0.00021042, "MEAN_MOTION_DOT": 1.527e-05, "MEAN_MOTION_DDOT": 0, "GROUP": "resource"}, "tle": {"line1": "1 57654U 23123A   25334.90580204  .00001527  00000+0  21042-3 0  9999", "line2": "2 57654  97.9110 250.8435 0001479  71.5692 288.5681 14.79641517123306"}}, "geometry": {"type": "Point", "coordinates": [-97.52442475837385, -54.81796162915826]}}, {"type": "Feature", "properties": {"norad_id": 59065, "name": "PARS 1", "group": "resource", "lat": -40.49453000789703, "lon": -47.715471537558315, "alt_km": 458.190182743685, "timestamp": "2025-12-01T03:58:49.209148+00:00", "meta": {"OBJECT_NAME": "PARS 1", "OBJECT_ID": "2024-039Q", "EPOCH": "2025-11-30T21:55:20.636256", "MEAN_MOTION": 15.40578559, "ECCENTRICITY": 0.0012577, "INCLINATION": 97.4616, "RA_OF_ASC_NODE": 305.6011, "ARG_OF_PERICENTER": 107.0438, "MEAN_ANOMALY": 253.2187, "EPHEMERIS_TYPE": 0, "CLASSIFICATION_TYPE": "U", "NORAD_CAT_ID": 59065, "ELEMENT_SET_NO": 999, "REV_AT_EPOCH": 9806, "BSTAR": 0.00030614, "MEAN_MOTION_DOT": 0.00012401, "MEAN_MOTION_DDOT": 0, "GROUP": "resource"}, "tle": {"line1": "1 59065U 24039Q   25334.91343329  .00012401  00000+0  30614-3 0  9998", "line2": "2 59065  97.4616 305.6011 0012577 107.0438 253.2187 15.40578559 98061"}}, "geometry": {"type": "Point", "coordinates": [-47.715471537558315, -40.49453000789703]}}, {"type": "Feature", "properties": {"norad_id": 59371, "name": "RESURS-P 4", "group": "resource", "lat": 72.28395247647995, "lon": 125.22881621008928, "alt_km": 462.0624755883464, "timestamp": "2025-12-01T03:58:49.209186+00:00", "meta": {"OBJECT_NAME": "RESURS-P 4", "OBJECT_ID": "2024-061A", "EPOCH": "2025-11-30T21:14:53.116800", "MEAN_MOTION": 15.31937653, "ECCENTRICITY": 0.0002354, "INCLINATION": 97.2522, "RA_OF_ASC_NODE": 281.4611, "ARG_OF_PERICENTER": 56.9776, "MEAN_ANOMALY": 303.1692, "EPHEMERIS_TYPE": 0, "CLASSIFICATION_TYPE": "U", "NORAD_CAT_ID": 59371, "ELEMENT_SET_NO": 999, "REV_AT_EPOCH": 9339, "BSTAR": 0.00014715, "MEAN_MOTION_DOT": 4.461e-05, "MEAN_MOTION_DDOT": 0, "GROUP": "resource"}, "tle": {"line1": "1 59371U 24061A   25334.88533700  .00004461  00000+0  14715-3 0  9994", "line2": "2 59371  97.2522 281.4611 0002354  56.9776 303.1692 15.31937653 93392"}}, "geometry": {"type": "Point", "coordinates": [125.22881621008928, 72.28395247647995]}}, {"type": "Feature", "properties": {"norad_id": 59625, "name": "LEGION 1", "group": "resource", "lat": -78.2142754709477, "lon": -169.39449029463282, "alt_km": 525.0806490738532, "timestamp": "2025-12-01T03:58:49.209220+00:00", "meta": {"OBJECT_NAME": "LEGION 1", "OBJECT_ID": "2024-081A", "EPOCH": "2025-11-30T18:54:49.840704", "MEAN_MOTION": 15.16293531, "ECCENTRICITY": 0.0004932, "INCLINATION": 97.5229, "RA_OF_ASC_NODE": 49.5294, "ARG_OF_PERICENTER": 3.832, "MEAN_ANOMALY": 356.295, "EPHEMERIS_TYPE": 0, "CLASSIFICATION_TYPE": "U", "NORAD_CAT_ID": 59625, "ELEMENT_SET_NO": 999, "REV_AT_EPOCH": 8746, "BSTAR": 0.00025775, "MEAN_MOTION_DOT": 4.926e-05, "MEAN_MOTION_DDOT": 0, "GROUP": "resource"}, "tle": {"line1": "1 59625U 24081A   25334.78807686  .00004926  00000+0  25775-3 0  9998", "line2": "2 59625  97.5229  49.5294 0004932   3.8320 356.2950 15.16293531 87461"}}, "geometry": {"type": "Point", "coordinates": [-169.39449029463282, -78.2142754709477]}}, {"type": "Feature", "properties": {"norad_id": 59626, "name": "LEGION 2", "group": "resource", "lat": 77.71518550785667, "lon": 12.624486847972157, "alt_km": 510.51449328489616, "timestamp": "2025-12-01T03:58:49.209230+00:00", "meta": {"OBJECT_NAME": "LEGION 2", "OBJECT_ID": "2024-081B", "EPOCH": "2025-11-30T19:42:32.062752", "MEAN_MOTION": 15.16305948, "ECCENTRICITY": 0.0006458, "INCLINATION": 97.5233, "RA_OF_ASC_NODE": 49.6488, "ARG_OF_PERICENTER": 341.3267, "MEAN_ANOMALY": 18.7728, "EPHEMERIS_TYPE": 0, "CLASSIFICATION_TYPE": "U", "NORAD_CAT_ID": 59626, "ELEMENT_SET_NO": 999, "REV_AT_EPOCH": 8747, "BSTAR": 0.00029887, "MEAN_MOTION_DOT": 5.726e-05, "MEAN_MOTION_DDOT": 0, "GROUP": "resource"}, "tle": {"line1": "1 59626U 24081B   25334.82120443  .00005726  00000+0  29887-3 0  9990", "line2": "2 59626  97.5233  49.6488 0006458 341.3267  18.7728 15.16305948 87478"}}, "geometry": {"type": "Point", "coordinates": [12.624486847972157, 77.71518550785667]}}, {"type": "Feature", "properties": {"norad_id": 60182, "name": "ALOS-4 (DAICHI-4)", "group": "resource", "lat": -13.488286602116755, "lon": -111.73633679208757, "alt_km": 635.6067707741695, "timestamp": "2025-12-01T03:58:49.209284+00:00", "meta": {"OBJECT_NAME": "ALOS-4 (DAICHI-4)", "OBJECT_ID": "2024-123A", "EPOCH": "2025-11-30T09:15:12.370176", "MEAN_MOTION": 14.79468497, "ECCENTRICITY": 0.000127, "INCLINATION": 97.9232, "RA_OF_ASC_NODE": 69.4089, "ARG_OF_PERICENTER": 105.4124, "MEAN_ANOMALY": 254.7228, "EPHEMERIS_TYPE": 0, "CLASSIFICATION_TYPE": "U", "NORAD_CAT_ID": 60182, "ELEMENT_SET_NO": 999, "REV_AT_EPOCH": 7648, "BSTAR": -8.429942e-06, "MEAN_MOTION_DOT": -1.14e-06, "MEAN_MOTION_DDOT": 0, "GROUP": "resource"}, "tle": {"line1": "1 60182U 24123A   25334.38555984 -.00000114  00000+0 -84299-5 0  9997", "line2": "2 60182  97.9232  69.4089 0001270 105.4124 254.7228 14.79468497 76488"}}, "geometry": {"type": "Point", "coordinates": [-111.73633679208757, -13.488286602116755]}}, {"type": "Feature", "properties": {"norad_id": 60452, "name": "LEGION 3", "group": "resource", "lat": 34.466546395565054, "lon": 55.54927714886295, "alt_km": 512.2631288019302, "timestamp": "2025-12-01T03:58:49.209318+00:00", "meta": {"OBJECT_NAME": "LEGION 3", "OBJECT_ID": "2024-146A", "EPOCH": "2025-11-30T19:50:13.341120", "MEAN_MOTION": 15.15563705, "ECCENTRICITY": 0.001355, "INCLINATION": 45.0024, "RA_OF_ASC_NODE": 13.988, "ARG_OF_PERICENTER": 130.6465, "MEAN_ANOMALY": 229.5594, "EPHEMERIS_TYPE": 0, "CLASSIFICATION_TYPE": "U", "NORAD_CAT_ID": 60452, "ELEMENT_SET_NO": 999, "REV_AT_EPOCH": 7192, "BSTAR": 0.00026113, "MEAN_MOTION_DOT": 4.786e-05, "MEAN_MOTION_DDOT": 0, "GROUP": "resource"}, "tle": {"line1": "1 60452U 24146A   25334.82654330  .00004786  00000+0  26113-3 0  9992", "line2": "2 60452  45.0024  13.9880 0013550 130.6465 229.5594 15.15563705 71925"}}, "geometry": {"type": "Point", "coordinates": [55.54927714886295, 34.466546395565054]}}, {"type": "Feature", "properties": {"norad_id": 60453, "name": "LEGION 4", "group": "resource", "lat": 31.554565959170382, "lon": 141.745104549186, "alt_km": 520.5199127543237, "timestamp": "2025-12-01T03:58:49.209328+00:00", "meta": {"OBJECT_NAME": "LEGION 4", "OBJECT_ID": "2024-146B", "EPOCH": "2025-11-30T18:16:45.541344", "MEAN_MOTION": 15.15615203, "ECCENTRICITY": 0.0009817, "INCLINATION": 45.0367, "RA_OF_ASC_NODE": 106.05, "ARG_OF_PERICENTER": 248.9604, "MEAN_ANOMALY": 111.0226, "EPHEMERIS_TYPE": 0, "CLASSIFICATION_TYPE": "U", "NORAD_CAT_ID": 60453, "ELEMENT_SET_NO": 999, "REV_AT_EPOCH": 7076, "BSTAR": 0.00035054, "MEAN_MOTION_DOT": 6.521e-05, "MEAN_MOTION_DDOT": 0, "GROUP": "resource"}, "tle": {"line1": "1 60453U 24146B   25334.76163821  .00006521  00000+0  35054-3 0  9999", "line2": "2 60453  45.0367 106.0500 0009817 248.9604 111.0226 15.15615203 70767"}}, "geometry": {"type": "Point", "coordinates": [141.745104549186, 31.554565959170382]}}, {"type": "Feature", "properties": {"norad_id": 60989, "name": "SENTINEL-2C", "group": "resource", "lat": -1.2599112411403357, "lon": -132.37210827232343, "alt_km": 791.9321589388092, "timestamp": "2025-12-01T03:58:49.209363+00:00", "meta": {"OBJECT_NAME": "SENTINEL-2C", "OBJECT_ID": "2024-157A", "EPOCH": "2025-11-30T18:44:41.569152", "MEAN_MOTION": 14.30822333, "ECCENTRICITY": 0.0001152, "INCLINATION": 98.5617, "RA_OF_ASC_NODE": 47.4388, "ARG_OF_PERICENTER": 102.5895, "MEAN_ANOMALY": 257.5417, "EPHEMERIS_TYPE": 0, "CLASSIFICATION_TYPE": "U", "NORAD_CAT_ID": 60989, "ELEMENT_SET_NO": 999, "REV_AT_EPOCH": 6461, "BSTAR": 7.1051e-05, "MEAN_MOTION_DOT": 1.43e-06, "MEAN_MOTION_DDOT": 0, "GROUP": "resource"}, "tle": {"line1": "1 60989U 24157A   25334.78103668  .00000143  00000+0  71051-4 0  9992", "line2": "2 60989  98.5617  47.4388 0001152 102.5895 257.5417 14.30822333 64610"}}, "geometry": {"type": "Point", "coordinates": [-132.37210827232343, -1.2599112411403357]}}, {"type": "Feature", "properties": {"norad_id": 61735, "name": "IONOSFERA-M 1", "group": "resource", "lat": 63.22256144865755, "lon": -172.6485191093553, "alt_km": 809.0626969610557, "timestamp": "2025-12-01T03:58:49.209412+00:00", "meta": {"OBJECT_NAME": "IONOSFERA-M 1", "OBJECT_ID": "2024-199A", "EPOCH": "2025-11-30T20:55:35.122656", "MEAN_MOTION": 14.22709684, "ECCENTRICITY": 0.0001467, "INCLINATION": 98.741, "RA_OF_ASC_NODE": 204.8105, "ARG_OF_PERICENTER": 38.7743, "MEAN_ANOMALY": 321.354, "EPHEMERIS_TYPE": 0, "CLASSIFICATION_TYPE": "U", "NORAD_CAT_ID": 61735, "ELEMENT_SET_NO": 999, "REV_AT_EPOCH": 9950, "BSTAR": 5.2862e-05, "MEAN_MOTION_DOT": 7.4e-07, "MEAN_MOTION_DDOT": 0, "GROUP": "resource"}, "tle": {"line1": "1 61735U 24199A   25334.87193429  .00000074  00000+0  52862-4 0  9994", "line2": "2 61735  98.7410 204.8105 0001467  38.7743 321.3540 14.22709684 99507"}}, "geometry": {"type": "Point", "coordinates": [-172.6485191093553, 63.22256144865755]}}]}